RED-EYE 3 (CABERNET)    
1 45809U 98067RN  21008.52009353  .00004504  00000-0  82575-4 0  9998
2 45809  51.6429  50.7862 0002016  57.2166 302.9018 15.51461062 30826
DEMI                    
1 45916U 98067RP  21008.46971658  .00010797  00000-0  17293-3 0  9991
2 45916  51.6425  49.7090 0002747   2.1216 357.9785 15.53670164 27822
TECHEDSAT 10            
1 45917U 98067RQ  21008.49336284  .00096580  00000-0  83408-3 0  9990
2 45917  51.6369  43.0935 0007960  28.3603 331.7825 15.68402261 27863
PROGRESS-MS 15          
1 45937U 20050A   21007.66020542  .00001386  00000-0  32992-4 0  9997
2 45937  51.6455  56.7324 0000494 187.1460 317.9123 15.49264422263711
CYGNUS NG-14            
1 46530U 20069A   21008.38449522  .00008461  00000-0  31971-3 0  9996
2 46530  51.6443  53.4098 0010137 295.0129 169.2460 15.27756669 15088
SOYUZ-MS 17             
1 46613U 20072A   21007.66020542  .00001386  00000-0  32992-4 0  9993
2 46613  51.6455  56.7324 0000494 187.1460 317.9123 15.49264422263713
CREW DRAGON 1           
1 46920U 20084A   21007.66020542  .00001386  00000-0  32992-4 0  9997
2 46920  51.6455  56.7324 0000494 187.1460 317.9123 15.49264422263714
SPOC                    
1 46921U 98067RR  21008.53601223  .00006076  00000-0  10893-3 0  9998
2 46921  51.6439  51.6464 0001568 185.9255 174.1716 15.51396257 10016
BOBCAT-1                
1 46922U 98067RS  21008.39916554  .00009604  00000-0  16515-3 0  9996
2 46922  51.6441  52.2340 0001082 187.6681 172.4292 15.51821816  9958
NEUTRON-1               
1 46923U 98067RT  21008.53975194  .00005824  00000-0  10510-3 0  9997
2 46923  51.6439  51.6707 0001346 205.9181 154.1741 15.51295674 10043
1998-067RU              
1 46924U 98067RU  21008.58016009  .00013248  00000-0  21905-3 0  9993
2 46924  51.6432  51.1907 0001045 292.5508  67.5371 15.52551845 10025
LEMUR-2-BAXTER-OLIVER   
1 46925U 98067RV  21008.57510655  .00015197  00000-0  24816-3 0  9998
2 46925  51.6439  51.1603 0001060 281.0185  79.0686 15.52771061  9981
LEMUR-2-DJARA           
1 46926U 98067RW  21008.51446182  .00014119  00000-0  23219-3 0  9995
2 46926  51.6439  51.5046 0000311 222.5802 137.5164 15.52640507  9993
DESCENT                 
1 46927U 98067RX  21008.54205161  .00005794  00000-0  10473-3 0  9996
2 46927  51.6437  51.6852 0001400 242.9983 117.0863 15.51259639  9950
DRAGON CRS-21           
1 47233U 20093A   21007.66020542  .00001386  00000-0  32992-4 0  9995
2 47233  51.6455  56.7324 0000494 187.1460 317.9123 15.49264422263712
